[{"OBJECT_NAME":"STARLINK-5196","OBJECT_ID":"2023-010BC","EPOCH":"2026-03-09T21:24:37.510848","MEAN_MOTION":14.98330027,"ECCENTRICITY":0.00027796,"INCLINATION":70.0009,"RA_OF_ASC_NODE":3.9051,"ARG_OF_PERICENTER":267.8181,"MEAN_ANOMALY":92.266,"EPHEMERIS_TYPE":0,"CLASSIFICATION_TYPE":"U","NORAD_CAT_ID":55319,"ELEMENT_SET_NO":999,"REV_AT_EPOCH":17467,"BSTAR":-3.2041794e-5,"MEAN_MOTION_DOT":-4.75e-6,"MEAN_MOTION_DDOT":0},{"OBJECT_NAME":"SHIYAN-24C 03","OBJECT_ID":"2023-206C","EPOCH":"2026-03-09T21:23:43.281888","MEAN_MOTION":14.97896938,"ECCENTRICITY":0.0002411,"INCLINATION":97.3969,"RA_OF_ASC_NODE":41.7507,"ARG_OF_PERICENTER":66.6237,"MEAN_ANOMALY":293.524,"EPHEMERIS_TYPE":0,"CLASSIFICATION_TYPE":"U","NORAD_CAT_ID":58652,"ELEMENT_SET_NO":999,"REV_AT_EPOCH":12043,"BSTAR":0.00011928,"MEAN_MOTION_DOT":1.35e-5,"MEAN_MOTION_DDOT":0}]
